EOSSAT-1                
1 55053U 23001AW  26068.73619225  .00007695  00000+0  24844-3 0  9992
2 55053  97.3357 130.2294 0011263 110.3168 249.9285 15.32339828176689
STARLINK-32402          
1 61708U 24196B   26068.47272173  .00000562  00000+0  31097-4 0  9995
2 61708  53.1607 102.3284 0001152 101.0141 259.0989 15.30191635 77126
